{
  "norad_id": 58226,
  "name": "STARLINK-30865",
  "history": [
    {
      "epoch": "2026-03-28T15:53:26.042208Z",
      "apogee_km": 486.24778448124016,
      "perigee_km": 484.8629659076214,
      "latitude_deg": 8.455758303076308e-06,
      "longitude_deg": 11.364161574536972,
      "height_km": 485.2945676265742,
      "semi_major_axis_km": 6863.6923751944305,
      "eccentricity": 0.00010088,
      "inclination_deg": 43.0019,
      "raan_deg": 75.802,
      "arg_perigee_deg": 273.1023,
      "mean_anomaly_deg": 86.9713,
      "mean_motion_rev_day": 15.26743382
    },
    {
      "epoch": "2026-03-30T05:34:25.470336Z",
      "apogee_km": 486.2490623418953,
      "perigee_km": 484.8551843547257,
      "latitude_deg": 5.186875219225866e-05,
      "longitude_deg": 155.71219832985668,
      "height_km": 485.27875355105914,
      "semi_major_axis_km": 6863.68912334831,
      "eccentricity": 0.00010154,
      "inclination_deg": 43.0016,
      "raan_deg": 66.9452,
      "arg_perigee_deg": 274.1143,
      "mean_anomaly_deg": 85.9593,
      "mean_motion_rev_day": 15.26744467
    },
    {
      "epoch": "2026-03-30T08:42:50.398848Z",
      "apogee_km": 486.28710755433804,
      "perigee_km": 484.8169053691545,
      "latitude_deg": 6.330177008664846e-05,
      "longitude_deg": 107.74177606030277,
      "height_km": 485.2631842103725,
      "semi_major_axis_km": 6863.689006461746,
      "eccentricity": 0.0001071,
      "inclination_deg": 43.0027,
      "raan_deg": 66.2076,
      "arg_perigee_deg": 275.1219,
      "mean_anomaly_deg": 84.9511,
      "mean_motion_rev_day": 15.26744506
    },
    {
      "epoch": "2026-03-31T08:15:58.113504Z",
      "apogee_km": 486.499802972231,
      "perigee_km": 484.6493463317038,
      "latitude_deg": 5.001981650680725e-05,
      "longitude_deg": 107.95756657693256,
      "height_km": 485.5935415343491,
      "semi_major_axis_km": 6863.711574651967,
      "eccentricity": 0.0001348,
      "inclination_deg": 43.0018,
      "raan_deg": 60.6728,
      "arg_perigee_deg": 254.8309,
      "mean_anomaly_deg": 105.2394,
      "mean_motion_rev_day": 15.26736976
    },
    {
      "epoch": "2026-04-01T14:05:55.432896Z",
      "apogee_km": 486.1562875241634,
      "perigee_km": 484.9839663468838,
      "latitude_deg": 1.8538042232242163e-05,
      "longitude_deg": 12.233322965627554,
      "height_km": 485.38904205685856,
      "semi_major_axis_km": 6863.707126935524,
      "eccentricity": 8.54e-05,
      "inclination_deg": 43.0028,
      "raan_deg": 53.6626,
      "arg_perigee_deg": 265.8616,
      "mean_anomaly_deg": 94.2138,
      "mean_motion_rev_day": 15.2673846
    }
  ]
}